CCSDS_OMM_VERS = 2.0
CREATION_DATE  = 
ORIGINATOR     = 

OBJECT_NAME    = ISS (ZARYA)
OBJECT_ID      = 1998-067A
CENTER_NAME    = EARTH
REF_FRAME      = TEME
TIME_SYSTEM    = UTC
MEAN_ELEMENT_THEORY = SGP/SGP4

EPOCH          = 2025-12-09T12:14:10.838688
MEAN_MOTION    = 15.49447168
ECCENTRICITY   = .00034
INCLINATION    = 51.6310
RA_OF_ASC_NODE = 158.4724
ARG_OF_PERICENTER = 223.8185
MEAN_ANOMALY   = 136.2534

EPHEMERIS_TYPE = 0
CLASSIFICATION_TYPE = U
NORAD_CAT_ID   = 25544
ELEMENT_SET_NO = 999
REV_AT_EPOCH   = 54235
BSTAR          = .26026E-3
MEAN_MOTION_DOT = .14141E-3
MEAN_MOTION_DDOT = 0

CCSDS_OMM_VERS = 2.0
CREATION_DATE  = 
ORIGINATOR     = 

OBJECT_NAME    = CSS (TIANHE)
OBJECT_ID      = 2021-035A
CENTER_NAME    = EARTH
REF_FRAME      = TEME
TIME_SYSTEM    = UTC
MEAN_ELEMENT_THEORY = SGP/SGP4

EPOCH          = 2025-12-09T18:25:59.219328
MEAN_MOTION    = 15.58978246
ECCENTRICITY   = .0008894
INCLINATION    = 41.4683
RA_OF_ASC_NODE = 34.7466
ARG_OF_PERICENTER = 6.5017
MEAN_ANOMALY   = 353.5936

EPHEMERIS_TYPE = 0
CLASSIFICATION_TYPE = U
NORAD_CAT_ID   = 48274
ELEMENT_SET_NO = 999
REV_AT_EPOCH   = 26356
BSTAR          = .43651E-3
MEAN_MOTION_DOT = .34797E-3
MEAN_MOTION_DDOT = 0

CCSDS_OMM_VERS = 2.0
CREATION_DATE  = 
ORIGINATOR     = 

OBJECT_NAME    = ISS (NAUKA)
OBJECT_ID      = 2021-066A
CENTER_NAME    = EARTH
REF_FRAME      = TEME
TIME_SYSTEM    = UTC
MEAN_ELEMENT_THEORY = SGP/SGP4

EPOCH          = 2025-12-09T12:14:10.839552
MEAN_MOTION    = 15.49447168
ECCENTRICITY   = .00034
INCLINATION    = 51.6310
RA_OF_ASC_NODE = 158.4724
ARG_OF_PERICENTER = 223.8185
MEAN_ANOMALY   = 136.2534

EPHEMERIS_TYPE = 0
CLASSIFICATION_TYPE = U
NORAD_CAT_ID   = 49044
ELEMENT_SET_NO = 999
REV_AT_EPOCH   = 23044
BSTAR          = .26025969E-3
MEAN_MOTION_DOT = .14141E-3
MEAN_MOTION_DDOT = 0

CCSDS_OMM_VERS = 2.0
CREATION_DATE  = 
ORIGINATOR     = 

OBJECT_NAME    = CSS (WENTIAN)
OBJECT_ID      = 2022-085A
CENTER_NAME    = EARTH
REF_FRAME      = TEME
TIME_SYSTEM    = UTC
MEAN_ELEMENT_THEORY = SGP/SGP4

EPOCH          = 2025-12-09T13:49:14.456064
MEAN_MOTION    = 15.58965688
ECCENTRICITY   = .00089597
INCLINATION    = 41.4682
RA_OF_ASC_NODE = 35.9133
ARG_OF_PERICENTER = 5.1145
MEAN_ANOMALY   = 354.9784

EPHEMERIS_TYPE = 0
CLASSIFICATION_TYPE = U
NORAD_CAT_ID   = 53239
ELEMENT_SET_NO = 999
REV_AT_EPOCH   = 17384
BSTAR          = .41052725E-3
MEAN_MOTION_DOT = .32682E-3
MEAN_MOTION_DDOT = 0

CCSDS_OMM_VERS = 2.0
CREATION_DATE  = 
ORIGINATOR     = 

OBJECT_NAME    = CSS (MENGTIAN)
OBJECT_ID      = 2022-143A
CENTER_NAME    = EARTH
REF_FRAME      = TEME
TIME_SYSTEM    = UTC
MEAN_ELEMENT_THEORY = SGP/SGP4

EPOCH          = 2025-12-09T13:49:14.456064
MEAN_MOTION    = 15.58965688
ECCENTRICITY   = .00089597
INCLINATION    = 41.4682
RA_OF_ASC_NODE = 35.9133
ARG_OF_PERICENTER = 5.1145
MEAN_ANOMALY   = 354.9784

EPHEMERIS_TYPE = 0
CLASSIFICATION_TYPE = U
NORAD_CAT_ID   = 54216
ELEMENT_SET_NO = 999
REV_AT_EPOCH   = 15864
BSTAR          = .41052725E-3
MEAN_MOTION_DOT = .32682E-3
MEAN_MOTION_DDOT = 0

CCSDS_OMM_VERS = 2.0
CREATION_DATE  = 
ORIGINATOR     = 

OBJECT_NAME    = SHENZHOU-20 (SZ-20)
OBJECT_ID      = 2025-082A
CENTER_NAME    = EARTH
REF_FRAME      = TEME
TIME_SYSTEM    = UTC
MEAN_ELEMENT_THEORY = SGP/SGP4

EPOCH          = 2025-12-09T13:49:14.456064
MEAN_MOTION    = 15.58965688
ECCENTRICITY   = .00089597
INCLINATION    = 41.4682
RA_OF_ASC_NODE = 35.9133
ARG_OF_PERICENTER = 5.1145
MEAN_ANOMALY   = 354.9784

EPHEMERIS_TYPE = 0
CLASSIFICATION_TYPE = U
NORAD_CAT_ID   = 63632
ELEMENT_SET_NO = 999
REV_AT_EPOCH   = 25530
BSTAR          = .41052725E-3
MEAN_MOTION_DOT = .32682E-3
MEAN_MOTION_DDOT = 0

CCSDS_OMM_VERS = 2.0
CREATION_DATE  = 
ORIGINATOR     = 

OBJECT_NAME    = PROGRESS-MS 31
OBJECT_ID      = 2025-146A
CENTER_NAME    = EARTH
REF_FRAME      = TEME
TIME_SYSTEM    = UTC
MEAN_ELEMENT_THEORY = SGP/SGP4

EPOCH          = 2025-12-09T12:14:10.839552
MEAN_MOTION    = 15.49447168
ECCENTRICITY   = .00034
INCLINATION    = 51.6310
RA_OF_ASC_NODE = 158.4724
ARG_OF_PERICENTER = 223.8185
MEAN_ANOMALY   = 136.2534

EPHEMERIS_TYPE = 0
CLASSIFICATION_TYPE = U
NORAD_CAT_ID   = 64751
ELEMENT_SET_NO = 999
REV_AT_EPOCH   = 675
BSTAR          = .26025969E-3
MEAN_MOTION_DOT = .14141E-3
MEAN_MOTION_DDOT = 0

CCSDS_OMM_VERS = 2.0
CREATION_DATE  = 
ORIGINATOR     = 

OBJECT_NAME    = TIANZHOU-9
OBJECT_ID      = 2025-149A
CENTER_NAME    = EARTH
REF_FRAME      = TEME
TIME_SYSTEM    = UTC
MEAN_ELEMENT_THEORY = SGP/SGP4

EPOCH          = 2025-12-09T13:49:14.456064
MEAN_MOTION    = 15.58965688
ECCENTRICITY   = .00089597
INCLINATION    = 41.4682
RA_OF_ASC_NODE = 35.9133
ARG_OF_PERICENTER = 5.1145
MEAN_ANOMALY   = 354.9784

EPHEMERIS_TYPE = 0
CLASSIFICATION_TYPE = U
NORAD_CAT_ID   = 64786
ELEMENT_SET_NO = 999
REV_AT_EPOCH   = 25530
BSTAR          = .41052725E-3
MEAN_MOTION_DOT = .32682E-3
MEAN_MOTION_DDOT = 0

CCSDS_OMM_VERS = 2.0
CREATION_DATE  = 
ORIGINATOR     = 

OBJECT_NAME    = CREW DRAGON 11
OBJECT_ID      = 2025-166A
CENTER_NAME    = EARTH
REF_FRAME      = TEME
TIME_SYSTEM    = UTC
MEAN_ELEMENT_THEORY = SGP/SGP4

EPOCH          = 2025-12-09T12:14:10.839552
MEAN_MOTION    = 15.49447168
ECCENTRICITY   = .00034
INCLINATION    = 51.6310
RA_OF_ASC_NODE = 158.4724
ARG_OF_PERICENTER = 223.8185
MEAN_ANOMALY   = 136.2534

EPHEMERIS_TYPE = 0
CLASSIFICATION_TYPE = U
NORAD_CAT_ID   = 65077
ELEMENT_SET_NO = 999
REV_AT_EPOCH   = 214
BSTAR          = .26025969E-3
MEAN_MOTION_DOT = .14141E-3
MEAN_MOTION_DDOT = 0

CCSDS_OMM_VERS = 2.0
CREATION_DATE  = 
ORIGINATOR     = 

OBJECT_NAME    = DRAGON CRS-33
OBJECT_ID      = 2025-186A
CENTER_NAME    = EARTH
REF_FRAME      = TEME
TIME_SYSTEM    = UTC
MEAN_ELEMENT_THEORY = SGP/SGP4

EPOCH          = 2025-12-09T12:14:10.839552
MEAN_MOTION    = 15.49447168
ECCENTRICITY   = .00034
INCLINATION    = 51.6310
RA_OF_ASC_NODE = 158.4724
ARG_OF_PERICENTER = 223.8185
MEAN_ANOMALY   = 136.2534

EPHEMERIS_TYPE = 0
CLASSIFICATION_TYPE = U
NORAD_CAT_ID   = 65304
ELEMENT_SET_NO = 999
REV_AT_EPOCH   = 11
BSTAR          = .26025969E-3
MEAN_MOTION_DOT = .14141E-3
MEAN_MOTION_DDOT = 0

CCSDS_OMM_VERS = 2.0
CREATION_DATE  = 
ORIGINATOR     = 

OBJECT_NAME    = PROGRESS-MS 32
OBJECT_ID      = 2025-204A
CENTER_NAME    = EARTH
REF_FRAME      = TEME
TIME_SYSTEM    = UTC
MEAN_ELEMENT_THEORY = SGP/SGP4

EPOCH          = 2025-12-09T12:14:10.839552
MEAN_MOTION    = 15.49447168
ECCENTRICITY   = .00034
INCLINATION    = 51.6310
RA_OF_ASC_NODE = 158.4724
ARG_OF_PERICENTER = 223.8185
MEAN_ANOMALY   = 136.2534

EPHEMERIS_TYPE = 0
CLASSIFICATION_TYPE = U
NORAD_CAT_ID   = 65586
ELEMENT_SET_NO = 999
REV_AT_EPOCH   = 27
BSTAR          = .26025969E-3
MEAN_MOTION_DOT = .14141E-3
MEAN_MOTION_DDOT = 0

